*******************************************************************************
 Revised : Jul 31, 2013                  Sun                                 10

 PHYSICAL PROPERTIES (revised Jan 16, 2014):
  GM (10^11 km^3/s^2)   = 1.3271244004193938  Mass (10^30 kg)   ~ 1.988544
  Radius (photosphere)  = 6.963(10^5) km  Angular diam at 1 AU  = 1919.3"
  Solar Radius (IAU)    = 6.955(10^5) km  Mean density          = 1.408 g/cm^3
  Surface gravity       =  274.0 m/s^2    Moment of inertia     = 0.059
  Escape velocity       =  617.7 km/s     Adopted sidereal per  = 25.38 d
  Pole (RA,DEC in deg.) =  286.13,63.87   Obliquity to ecliptic = 7 deg 15'        
  Solar constant (1 AU) = 1367.6 W/m^2    Solar lumin.(erg/s)   =  3.846(10^33)
  Mass-energy conv rate = 4.3(10^12 gm/s) Effective temp (K)    =  5778
  Surf. temp (photosphr)= 6600 K (bottom) Surf. temp (photosphr)=  4400 K (top)
  Photospheric depth    = ~400 km         Chromospheric depth   = ~2500 km
  Sunspot cycle         = 11.4 yr         Cycle 22 sunspot min. =  1991 A.D.

  Motn. rel to nrby strs= apex : RA=271 deg; DEC=+30 deg
                          speed: 19.4 km/s = 0.0112 AU/day
  Motn. rel to 2.73K BB = apex : l=264.7+-0.8; b=48.2+-0.5
                          speed: 369 +-11 km/s
*******************************************************************************
 
 
*******************************************************************************
Ephemeris / WWW_USER Mon Oct  2 17:33:34 2017 Pasadena, USA      / Horizons    
*******************************************************************************
Target body name: Sun (10)                        {source: DE431mx}
Center body name: Earth (399)                     {source: DE431mx}
Center-site name: GEOCENTRIC
*******************************************************************************
Start time      : A.D. 1600-Jan-01 00:00:00.0000 UT      
Stop  time      : A.D. 2030-Jan-01 00:00:00.0000 UT      
Step-size       : 1 calendar month
*******************************************************************************
Target pole/equ : IAU_SUN                         {East-longitude +}
Target radii    : 696000.0 x 696000.0 x 696000.0 k{Equator, meridian, pole}    
Center geodetic : 0.00000000,0.00000000,0.0000000 {E-lon(deg),Lat(deg),Alt(km)}
Center cylindric: 0.00000000,0.00000000,0.0000000 {E-lon(deg),Dxy(km),Dz(km)}
Center pole/equ : High-precision EOP model        {East-longitude +}
Center radii    : 6378.1 x 6378.1 x 6356.8 km     {Equator, meridian, pole}    
Target primary  : Sun
Vis. interferer : MOON (R_eq= 1737.400) km        {source: DE431mx}
Rel. light bend : Sun, EARTH                      {source: DE431mx}
Rel. lght bnd GM: 1.3271E+11, 3.9860E+05 km^3/s^2                              
Atmos refraction: NO (AIRLESS)
RA format       : HMS
Time format     : CAL 
EOP file        : eop.171002.p171224                                           
EOP coverage    : DATA-BASED 1962-JAN-20 TO 2017-OCT-02. PREDICTS-> 2017-DEC-23
Units conversion: 1 au= 149597870.700 km, c= 299792.458 km/s, 1 day= 86400.0 s 
Table cut-offs 1: Elevation (-90.0deg=NO ),Airmass (>38.000=NO), Daylight (NO )
Table cut-offs 2: Solar elongation (  0.0,180.0=NO ),Local Hour Angle( 0.0=NO )
Table cut-offs 3: RA/DEC angular rate (     0.0=NO )                           
*******************************************************************************
 Date__(UT)__HR:MN        ObsEcLon    ObsEcLat
**********************************************
$$SOE
 1715-Jan-01 00:00     280.0612612  -0.0000984
 1715-Feb-01 00:00     311.6029131   0.0000415
 1715-Mar-01 00:00     339.8340545   0.0000443
 1715-Apr-01 00:00      10.6283499   0.0000657
 1715-May-01 00:00      39.9209582   0.0000269
 1715-Jun-01 00:00      69.7549874  -0.0000775
 1715-Jul-01 00:00      98.3907680  -0.0001309
 1715-Aug-01 00:00     127.9857155  -0.0001388
 1715-Sep-01 00:00     157.8360901  -0.0000520
 1715-Oct-01 00:00     187.1523364   0.0000456
 1715-Nov-01 00:00     217.9736752   0.0001606
 1715-Dec-01 00:00     248.2549281   0.0001883
 1716-Jan-01 00:00     279.8154503   0.0001252
 1716-Feb-01 00:00     311.3584544  -0.0000231
 1716-Mar-01 00:00     340.5947394  -0.0000968
 1716-Apr-01 00:00      11.3752402  -0.0001615
 1716-May-01 00:00      40.6552495  -0.0001202
 1716-Jun-01 00:00      70.4795923   0.0000092
 1716-Jul-01 00:00      99.1123042   0.0001146
 1716-Aug-01 00:00     128.7098005   0.0001894
 1716-Sep-01 00:00     158.5680286   0.0001628
 1716-Oct-01 00:00     187.8957306   0.0001137
 1716-Nov-01 00:00     218.7291531  -0.0000002
 1716-Dec-01 00:00     249.0207016  -0.0000663
 1717-Jan-01 00:00     280.5861182  -0.0000683
 1717-Feb-01 00:00     312.1265132   0.0000201
 1717-Mar-01 00:00     340.3529186   0.0000220
 1717-Apr-01 00:00      11.1360795   0.0001200
 1717-May-01 00:00      40.4176107   0.0001449
 1717-Jun-01 00:00      70.2422538   0.0001002
 1717-Jul-01 00:00      98.8740801   0.0000238
 1717-Aug-01 00:00     128.4702320  -0.0000907
 1717-Sep-01 00:00     158.3270186  -0.0001345
 1717-Oct-01 00:00     187.6521429  -0.0000953
 1717-Nov-01 00:00     218.4827285   0.0000199
 1717-Dec-01 00:00     248.7711763   0.0000897
 1718-Jan-01 00:00     280.3361823   0.0001173
 1718-Feb-01 00:00     311.8790821   0.0000455
 1718-Mar-01 00:00     340.1078162   0.0000299
 1718-Apr-01 00:00      10.8959758  -0.0000868
 1718-May-01 00:00      40.1813272  -0.0001754
 1718-Jun-01 00:00      70.0098841  -0.0002022
 1718-Jul-01 00:00      98.6440812  -0.0001270
 1718-Aug-01 00:00     128.2414464   0.0000334
 1718-Sep-01 00:00     158.0973754   0.0001559
 1718-Oct-01 00:00     187.4201190   0.0001750
 1718-Nov-01 00:00     218.2466061   0.0000955
 1718-Dec-01 00:00     248.5306750  -0.0000048
 1719-Jan-01 00:00     280.0914470  -0.0001259
 1719-Feb-01 00:00     311.6326983  -0.0001624
 1719-Mar-01 00:00     339.8644858  -0.0001681
 1719-Apr-01 00:00      10.6566887  -0.0000712
 1719-May-01 00:00      39.9466034   0.0000317
 1719-Jun-01 00:00      69.7772301   0.0001321
 1719-Jul-01 00:00      98.4117785   0.0001427
 1719-Aug-01 00:00     128.0066840   0.0000624
 1719-Sep-01 00:00     157.8584531  -0.0000516
 1719-Oct-01 00:00     187.1766307  -0.0001113
 1719-Nov-01 00:00     217.9981292  -0.0001043
 1719-Dec-01 00:00     248.2790268  -0.0000101
 1720-Jan-01 00:00     279.8392435   0.0001345
 1720-Feb-01 00:00     311.3832775   0.0002037
 1720-Mar-01 00:00     340.6212387   0.0001729
 1720-Apr-01 00:00      11.4029662   0.0000496
 1720-May-01 00:00      40.6826846  -0.0000810
 1720-Jun-01 00:00      70.5054986  -0.0002059
 1720-Jul-01 00:00      99.1358335  -0.0002349
 1720-Aug-01 00:00     128.7322257  -0.0001661
 1720-Sep-01 00:00     158.5912240  -0.0000190
 1720-Oct-01 00:00     187.9200820   0.0000930
 1720-Nov-01 00:00     218.7553293   0.0001581
 1720-Dec-01 00:00     249.0471266   0.0001275
 1721-Jan-01 00:00     280.6130086   0.0000016
 1721-Feb-01 00:00     312.1540825  -0.0001056
 1721-Mar-01 00:00     340.3805875  -0.0001178
 1721-Apr-01 00:00      11.1664275  -0.0001143
 1721-May-01 00:00      40.4498128  -0.0000562
 1721-Jun-01 00:00      70.2752704   0.0000469
 1721-Jul-01 00:00      98.9059875   0.0000904
 1721-Aug-01 00:00     128.5005997   0.0000979
 1721-Sep-01 00:00     158.3563869   0.0000082
 1721-Oct-01 00:00     187.6821118  -0.0000850
 1721-Nov-01 00:00     218.5137626  -0.0001640
 1721-Dec-01 00:00     248.8036523  -0.0001443
 1722-Jan-01 00:00     280.3683196  -0.0000275
 1722-Feb-01 00:00     311.9096393   0.0001271
 1722-Mar-01 00:00     340.1387373   0.0001632
 1722-Apr-01 00:00      10.9257483   0.0002268
 1722-May-01 00:00      40.2111559   0.0001897
 1722-Jun-01 00:00      70.0384120   0.0000458
 1722-Jul-01 00:00      98.6708199  -0.0000876
 1722-Aug-01 00:00     128.2645837  -0.0001951
 1722-Sep-01 00:00     158.1170048  -0.0001798
 1722-Oct-01 00:00     187.4379470  -0.0001114
 1722-Nov-01 00:00     218.2647470   0.0000085
 1722-Dec-01 00:00     248.5510907   0.0000775
 1723-Jan-01 00:00     280.1150199   0.0001032
 1723-Feb-01 00:00     311.6589459   0.0000385
 1723-Mar-01 00:00     339.8915674   0.0000145
 1723-Apr-01 00:00      10.6858455  -0.0001103
 1723-May-01 00:00      39.9777523  -0.0001375
 1723-Jun-01 00:00      69.8110141  -0.0000647
 1723-Jul-01 00:00      98.4466216   0.0000315
 1723-Aug-01 00:00     128.0414667   0.0001359
 1723-Sep-01 00:00     157.8910647   0.0001417
 1723-Oct-01 00:00     187.2056411   0.0000699
 1723-Nov-01 00:00     218.0251295  -0.0000779
 1723-Dec-01 00:00     248.3056819  -0.0001815
 1724-Jan-01 00:00     279.8677572  -0.0002247
 1724-Feb-01 00:00     311.4140249  -0.0001238
 1724-Mar-01 00:00     340.6533864  -0.0000170
 1724-Apr-01 00:00      11.4362378   0.0001646
 1724-May-01 00:00      40.7167632   0.0002552
 1724-Jun-01 00:00      70.5404927   0.0002530
 1724-Jul-01 00:00      99.1721763   0.0001798
 1724-Aug-01 00:00     128.7689208   0.0000278
 1724-Sep-01 00:00     158.6264361  -0.0000781
 1724-Oct-01 00:00     187.9528818  -0.0000696
 1724-Nov-01 00:00     218.7843175   0.0000257
 1724-Dec-01 00:00     249.0741073   0.0000910
 1725-Jan-01 00:00     280.6391667   0.0001275
 1725-Feb-01 00:00     312.1814153   0.0000556
 1725-Mar-01 00:00     340.4112571   0.0000246
 1725-Apr-01 00:00      11.1981043  -0.0000881
 1725-May-01 00:00      40.4820418  -0.0001435
 1725-Jun-01 00:00      70.3071751  -0.0001513
 1725-Jul-01 00:00      98.9380424  -0.0000785
 1725-Aug-01 00:00     128.5324647   0.0000719
 1725-Sep-01 00:00     158.3877895   0.0002130
 1725-Oct-01 00:00     187.7118842   0.0002426
 1725-Nov-01 00:00     218.5409963   0.0001492
 1725-Dec-01 00:00     248.8276660   0.0000030
 1726-Jan-01 00:00     280.3910964  -0.0001783
 1726-Feb-01 00:00     311.9340159  -0.0002626
 1726-Mar-01 00:00     340.1646370  -0.0002709
 1726-Apr-01 00:00      10.9563655  -0.0001828
 1726-May-01 00:00      40.2453393  -0.0000954
 1726-Jun-01 00:00      70.0763516   0.0000215
